ESTCUBE 1               
1 39161U 13021C   21132.94425094 -.00000046  00000-0  46929-6 0  9990
2 39161  97.9367 214.9511 0008046 262.6391  97.3869 14.72468665430528
FENGYUN 3C              
1 39260U 13052A   21133.86119751 -.00000310  00000-0 -13647-3 0  9999
2 39260  98.4993 176.1554 0010622 353.1551   6.9454 14.15866610395370
CASSIOPE                
1 39265U 13055A   21133.71602553  .00005412  00000-0  14870-3 0  9993
2 39265  80.9649 328.5529 0650464  55.8328 310.2785 14.32064974395006
ZACUBE-1 (TSHEPISOSAT)  
1 39417U 13066B   21133.66675184  .00000306  00000-0  44601-4 0  9991
2 39417  97.5915 119.7994 0057038 275.4373  84.0336 14.81500020403929
CINEMA-3 (KHUSAT-2)     
1 39426U 13066L   21133.60717955  .00000193  00000-0  37660-4 0  9999
2 39426  97.7531  87.2765 0105640  77.0486 284.2493 14.69668155400806
TRITON-1                
1 39427U 13066M   21132.74210761  .00000310  00000-0  56639-4 0  9995
2 39427  97.7726  82.2924 0114783 104.9622 256.4324 14.68215691400171
DELFI-N3XT              
1 39428U 13066N   21133.79335815  .00000437  00000-0  76197-4 0  9991
2 39428  97.7780  81.7513 0121126 114.3122 247.0789 14.67972840400063
GOMX-1                  
1 39430U 13066Q   21133.84441292  .00000670  00000-0  12989-3 0  9994
2 39430  97.8142  58.9038 0149317 223.5492 135.3862 14.59599795397995
BRITE-PL1 (LEM)         
1 39431U 13066R   21133.60722464  .00000093  00000-0  29812-4 0  9995
2 39431  97.7560  16.6250 0202808  26.8630 334.2894 14.47137214394734
ICUBE-1                 
1 39432U 13066S   21133.59169612  .00000523  00000-0  57986-4 0  9995
2 39432  97.4767 153.4615 0032456 156.5990 203.6714 14.90856457406320
HUMSAT-D                
1 39433U 13066T   21133.59545405  .00000471  00000-0  50264-4 0  9998
2 39433  97.4724 160.3110 0031581 136.4362 223.9361 14.92859402406721
VELOX-PII               
1 39438U 13066Y   21133.64175645  .00000246  00000-0  39655-4 0  9995
2 39438  97.6404 110.3497 0069320 319.7264  39.8824 14.78208162403062
FIRST-MOVE              
1 39439U 13066Z   21133.52321512  .00000628  00000-0  82019-4 0  9995
2 39439  97.5971 121.0409 0063020 273.9182  85.4829 14.82570227403863
CUBEBUG-2 (LO-74)       
1 39440U 13066AA  21133.47717704  .00000343  00000-0  54331-4 0  9993
2 39440  97.6738 104.5526 0079657 350.1778   9.7871 14.76227978402461
NEE-02 KRYSAOR          
1 39441U 13066AB  21133.64960485  .00000235  00000-0  40292-4 0  9990
2 39441  97.6835 102.0723 0081544   0.4428 359.6839 14.75171473402241
FUNCUBE-1 (AO-73)       
1 39444U 13066AE  21133.53716045  .00000380  00000-0  52701-4 0  9991
2 39444  97.5824 122.0345 0056048 266.1387  93.3418 14.82403600402859
HINCUBE                 
1 39445U 13066AF  21133.67615541  .00000377  00000-0  52465-4 0  9999
2 39445  97.5838 122.0178 0056063 267.5001  91.9795 14.82234325402414
UWE-3                   
1 39446U 13066AG  21133.64503208  .00000306  00000-0  47005-4 0  9999
2 39446  97.6350 111.6807 0068551 313.7997  45.7558 14.78766728401955
AIST-1 (RS-41)          
1 39492U 13078C   21133.85530293  .00000199  00000-0  18963-4 0  9991
2 39492  82.4182 258.7819 0019549 355.4590   4.6447 14.88024789400351
SPROUT                  
1 39770U 14029E   21133.78740137  .00000734  00000-0  85315-4 0  9999
2 39770  97.9121 245.0985 0007885 330.0564  30.0192 14.88368772378185
UNISAT-6                
1 40012U 14033C   21133.54765067  .00000246  00000-0  43507-4 0  9993
2 40012  97.6790 337.7992 0058531  14.7136 345.5760 14.74298722371053
BUGSAT-1 (TITA)         
1 40014U 14033E   21133.36838791  .00000823  00000-0  79035-4 0  9996
2 40014  98.1091 111.6612 0029817 282.0513  77.7363 14.95733249376326
DUCHIFAT-1              
1 40021U 14033M   21132.37038047  .00000560  00000-0  62101-4 0  9994
2 40021  97.9709  72.1847 0011343 286.1699  73.8270 14.91305619374901
NANOSATC-BR1            
1 40024U 14033Q   21133.79123678  .00000409  00000-0  47904-4 0  9995
2 40024  97.9502  68.8129 0010692 287.0787  72.9259 14.90411900374956
QB50P1                  
1 40025U 14033R   21133.75387168  .00000461  00000-0  54437-4 0  9995
2 40025  97.9324  64.3514 0011078 296.5204  63.4876 14.89419036374761
DTUSAT-2                
1 40030U 14033W   21133.74608018  .00000399  00000-0  48423-4 0  9998
2 40030  97.9158  61.0011 0010501 292.7277  67.2829 14.88972039374661
QB50P2                  
1 40032U 14033Y   21133.77548617  .00000336  00000-0  41775-4 0  9995
2 40032  97.9165  61.0366 0010417 293.6488  66.3635 14.88928679374659
POLYITAN-1              
1 40042U 14033AJ  21133.73395569  .00000453  00000-0  53871-4 0  9998
2 40042  97.9417  65.1081 0013144 286.7191  73.2583 14.89222791374655
TIGRISAT                
1 40043U 14033AK  21133.57681463  .00000184  00000-0  34213-4 0  9992
2 40043  97.6759 339.2184 0060147  12.5584 347.7107 14.74523725370996
AISAT                   
1 40054U 14034B   21133.68833667  .00000547  00000-0  82730-4 0  9992
2 40054  98.3183 285.6236 0013528 150.2697 209.9284 14.78397125370391
CANX-4                  
1 40055U 14034C   21132.60271686  .00000139  00000-0  28693-4 0  9996
2 40055  98.3006 272.9630 0014022 188.9453 171.1508 14.75043986369624
CANX-5                  
1 40056U 14034D   21132.67516595  .00000143  00000-0  29337-4 0  9996
2 40056  98.3006 273.0238 0014042 188.9506 171.1454 14.75035769360443
VELOX-I                 
1 40057U 14034E   21133.87555176  .00000343  00000-0  55052-4 0  9993
2 40057  98.3231 286.8499 0011600 161.6185 198.5437 14.78154444370432
METEOR-M 2              
1 40069U 14037A   21133.71395928 -.00000072  00000-0 -14350-4 0  9996
2 40069  98.4609 164.0808 0006676  53.2016 306.9746 14.20683544355102
DX1                     
1 40071U 14037C   21133.87081757  .00000724  00000-0  99901-4 0  9995
2 40071  98.4536 336.6177 0009179 151.2599 208.9120 14.81491963370176
UKUBE-1                 
1 40074U 14037F   21133.53268081  .00000677  00000-0  87464-4 0  9996
2 40074  98.4316 347.3033 0005186 128.9868 231.1806 14.84533820370721
FIREBIRD 3              
1 40377U 15003B   21133.64924998  .00002605  00000-0  98317-4 0  9996
2 40377  99.0945 267.6090 0117097 289.6718  69.1908 15.22176868347503
FIREBIRD 4              
1 40378U 15003C   21133.62678806  .00002601  00000-0  97994-4 0  9995
2 40378  99.0950 267.7170 0117202 289.5556  69.3050 15.22226581347505
GRIFEX                  
1 40379U 15003D   21133.53247163  .00001433  00000-0  61778-4 0  9997
2 40379  99.0904 257.2235 0127993 321.9042  37.3189 15.17914734346897
CP10 (EXOCUBE)          
1 40380U 15003E   21133.60828395  .00001187  00000-0  54668-4 0  9995
2 40380  99.0915 251.8850 0133924 340.2373  19.3692 15.15622087346542
DEORBITSAIL             
1 40719U 15032E   21133.66059136  .00000513  00000-0  79186-4 0  9992
2 40719  97.8322  19.4918 0015072 216.5208 143.4976 14.77339116314841
NUDT-PHONESAT           
1 40900U 15049B   21133.83691352  .00004591  00000-0  18007-3 0  9997
2 40900  97.4198 148.1844 0009988 258.6993 226.6745 15.26207320313545
XW-2A                   
1 40903U 15049E   21133.85733514  .00004083  00000-0  87994-4 0  9997
2 40903  97.2373 188.4430 0013908 135.5860 340.5528 15.45074049317452
XW-2C                   
1 40906U 15049H   21133.86338289  .00001051  00000-0  57044-4 0  9996
2 40906  97.4840 136.6526 0013166 313.2836 164.3517 15.16683189312321
XW-2D                   
1 40907U 15049J   21133.86523330  .00001091  00000-0  58569-4 0  9997
2 40907  97.4824 136.4362 0012336 309.5238 169.8707 15.16995902312355
LILACSAT-2              
1 40908U 15049K   21133.66517692 -.00000064  00000-0  11654-6 0  9996
2 40908  97.5028 134.1331 0014682 325.9941 145.3634 15.14404338311963
XW-2E                   
1 40909U 15049L   21133.87516385  .00002105  00000-0  10247-3 0  9999
2 40909  97.4644 140.4124 0011310 294.8899 184.2012 15.19437849312688
XW-2F                   
1 40910U 15049M   21133.86728306  .00001399  00000-0  70196-4 0  9992
2 40910  97.4707 139.4815 0012581 294.9369 184.7705 15.18937972312471
XW-2B                   
1 40911U 15049N   21133.86584817  .00001248  00000-0  66657-4 0  9990
2 40911  97.4824 137.1216 0012449 311.2657 166.5819 15.16913881312248
KAITUO 1B               
1 40912U 15049P   21133.91624023  .00002088  00000-0  95898-4 0  9993
2 40912  97.4440 143.8926 0012429 262.9201 184.6765 15.21462409312949
TIANWANG 1A (TW-1A)     
1 40928U 15051D   21133.90315139  .00006615  00000-0  13931-3 0  9994
2 40928  97.0774 159.6387 0011426  64.9399  55.2797 15.45524921316353
LAPAN-A2                
1 40931U 15052B   21133.55775801  .00000828  00000-0  26087-4 0  9993
2 40931   5.9995 141.2050 0014042 270.1948  89.6555 14.76675520304133
LQSAT                   
1 40958U 15057A   21133.83632053 -.00000529  00000-0 -74415-4 0  9997
2 40958  97.8032 191.5895 0018813 163.3256 196.8563 14.73170656301149
ATHENOXAT 1             
1 41168U 15077C   21133.44721554  .00002508  00000-0  92129-4 0  9994
2 41168  14.9861 158.3312 0011942  42.7947 354.4215 15.15587367299466
GALASSIA                
1 41170U 15077E   21132.70556969  .00002338  00000-0  82850-4 0  9992
2 41170  14.9875 154.6041 0012210  64.3528 295.8053 15.15807254299420
VELOX-II                
1 41171U 15077F   21133.55179203  .00001876  00000-0  66861-4 0  9999
2 41171  14.9902 204.6444 0008582 309.6452  50.3111 15.12485097298997
CHUBUSAT-2              
1 41338U 16012B   21132.47952890  .00000440  00000-0  27285-4 0  9998
2 41338  31.0038  54.6517 0013625 137.6968 222.4720 15.00512931287194
CHUBUSAT-3              
1 41339U 16012C   21133.76987249  .00000289  00000-0  15567-4 0  9999
2 41339  31.0128  43.7054 0013220 157.9511 202.1714 15.00661803287382
HORYU-4                 
1 41340U 16012D   21133.79333615  .00000688  00000-0  44781-4 0  9999
2 41340  31.0064  27.5600 0013875 189.3283 170.7096 15.01864374287574
